{"type": "FeatureCollection", "features": [ {"type": "Feature", "properties": {"norad_id": 33799, "name": "COSMOS 2251 DEB", "group": "cosmos-2251-debris", "lat": -19.86615600375234, "lon": -119.45217479739348, "alt_km": 632.0724689310018, "timestamp": "2025-12-26T12:57:39.664738+00:00", "meta": {"OBJECT_NAME": "COSMOS 2251 DEB", "OBJECT_ID": "1993-036AQ", "EPOCH": "2025-12-26T05:50:37.541184", "MEAN_MOTION": 14.79831027, "ECCENTRICITY": 0.0022086, "INCLINATION": 74.0322, "RA_OF_ASC_NODE": 55.1933, "ARG_OF_PERICENTER": 120.8294, "MEAN_ANOMALY": 300.3148, "EPHEMERIS_TYPE": 0, "CLASSIFICATION_TYPE": "U", "NORAD_CAT_ID": 33799, "ELEMENT_SET_NO": 999, "REV_AT_EPOCH": 89011, "BSTAR": 0.0013709424, "MEAN_MOTION_DOT": 0.00010355, "MEAN_MOTION_DDOT": 0}, "tle": {"line1": "1 33799U 93036AQ  25360.24349006  .00010355  00000+0  13709-2 0  9991", "line2": "2 33799  74.0322  55.1933 0022086 120.8294 300.3148 14.79831027890111"}}, "geometry": {"type": "Point", "coordinates": [-119.45217479739348, -19.86615600375234]}}, {"type": "Feature", "properties": {"norad_id": 33805, "name": "COSMOS 2251 DEB", "group": "cosmos-2251-debris", "lat": -28.21486092072769, "lon": -83.75932308406918, "alt_km": 737.5544610159859, "timestamp": "2025-12-26T12:57:39.664749+00:00", "meta": {"OBJECT_NAME": "COSMOS 2251 DEB", "OBJECT_ID": "1993-036AW", "EPOCH": "2025-12-26T04:51:44.058528", "MEAN_MOTION": 14.57885054, "ECCENTRICITY": 0.0059871, "INCLINATION": 74.0313, "RA_OF_ASC_NODE": 285.7198, "ARG_OF_PERICENTER": 110.757, "MEAN_ANOMALY": 250.0024, "EPHEMERIS_TYPE": 0, "CLASSIFICATION_TYPE": "U", "NORAD_CAT_ID": 33805, "ELEMENT_SET_NO": 999, "REV_AT_EPOCH": 89423, "BSTAR": 0.00025086962, "MEAN_MOTION_DOT": 1.148e-05, "MEAN_MOTION_DDOT": 0}, "tle": {"line1": "1 33805U 93036AW  25360.20259327  .00001148  00000+0  25087-3 0  9994", "line2": "2 33805  74.0313 285.7198 0059871 110.7570 250.0024 14.57885054894236"}}, "geometry": {"type": "Point", "coordinates": [-83.75932308406918, -28.21486092072769]}}, {"type": "Feature", "properties": {"norad_id": 33811, "name": "COSMOS 2251 DEB", "group": "cosmos-2251-debris", "lat": 40.234008060976834, "lon": -71.76873500918266, "alt_km": 532.1039143840835, "timestamp": "2025-12-26T12:57:39.664759+00:00", "meta": {"OBJECT_NAME": "COSMOS 2251 DEB", "OBJECT_ID": "1993-036BC", "EPOCH": "2025-12-26T05:22:15.921696", "MEAN_MOTION": 15.05668637, "ECCENTRICITY": 0.00309988, "INCLINATION": 73.8379, "RA_OF_ASC_NODE": 274.6834, "ARG_OF_PERICENTER": 353.08, "MEAN_ANOMALY": 135.5229, "EPHEMERIS_TYPE": 0, "CLASSIFICATION_TYPE": "U", "NORAD_CAT_ID": 33811, "ELEMENT_SET_NO": 999, "REV_AT_EPOCH": 90221, "BSTAR": 0.0010617864, "MEAN_MOTION_DOT": 0.00015498, "MEAN_MOTION_DDOT": 0}, "tle": {"line1": "1 33811U 93036BC  25360.22379539  .00015498  00000+0  10618-2 0  9997", "line2": "2 33811  73.8379 274.6834 0030998 353.0800 135.5229 15.05668637902215"}}, "geometry": {"type": "Point", "coordinates": [-71.76873500918266, 40.234008060976834]}}, {"type": "Feature", "properties": {"norad_id": 33815, "name": "COSMOS 2251 DEB", "group": "cosmos-2251-debris", "lat": 67.73191036845265, "lon": -77.15238798606998, "alt_km": 494.8106819004306, "timestamp": "2025-12-26T12:57:39.664770+00:00", "meta": {"OBJECT_NAME": "COSMOS 2251 DEB", "OBJECT_ID": "1993-036BG", "EPOCH": "2025-12-25T19:41:06.838656", "MEAN_MOTION": 15.21778143, "ECCENTRICITY": 0.00040974, "INCLINATION": 73.9516, "RA_OF_ASC_NODE": 149.0355, "ARG_OF_PERICENTER": 331.2535, "MEAN_ANOMALY": 152.2053, "EPHEMERIS_TYPE": 0, "CLASSIFICATION_TYPE": "U", "NORAD_CAT_ID": 33815, "ELEMENT_SET_NO": 999, "REV_AT_EPOCH": 88569, "BSTAR": 0.007771607, "MEAN_MOTION_DOT": 0.00180807, "MEAN_MOTION_DDOT": 0}, "tle": {"line1": "1 33815U 93036BG  25359.82021804  .00180807  00000+0  77716-2 0  9993", "line2": "2 33815  73.9516 149.0355 0004097 331.2535 152.2053 15.21778143885695"}}, "geometry": {"type": "Point", "coordinates": [-77.15238798606998, 67.73191036845265]}}, {"type": "Feature", "properties": {"norad_id": 33816, "name": "COSMOS 2251 DEB", "group": "cosmos-2251-debris", "lat": -46.561244269453155, "lon": 64.24321047890767, "alt_km": 1112.939860159513, "timestamp": "2025-12-26T12:57:39.664780+00:00", "meta": {"OBJECT_NAME": "COSMOS 2251 DEB", "OBJECT_ID": "1993-036BH", "EPOCH": "2025-12-25T14:36:56.196000", "MEAN_MOTION": 13.81797239, "ECCENTRICITY": 0.0264117, "INCLINATION": 73.8953, "RA_OF_ASC_NODE": 83.5844, "ARG_OF_PERICENTER": 93.9633, "MEAN_ANOMALY": 269.1724, "EPHEMERIS_TYPE": 0, "CLASSIFICATION_TYPE": "U", "NORAD_CAT_ID": 33816, "ELEMENT_SET_NO": 999, "REV_AT_EPOCH": 84851, "BSTAR": 0.00036192, "MEAN_MOTION_DOT": 4.84e-06, "MEAN_MOTION_DDOT": 0}, "tle": {"line1": "1 33816U 93036BH  25359.60898375  .00000484  00000+0  36192-3 0  9991", "line2": "2 33816  73.8953  83.5844 0264117  93.9633 269.1724 13.81797239848511"}}, "geometry": {"type": "Point", "coordinates": [64.24321047890767, -46.561244269453155]}}, {"type": "Feature", "properties": {"norad_id": 33818, "name": "COSMOS 2251 DEB", "group": "cosmos-2251-debris", "lat": 12.92693548440287, "lon": 141.45281555647855, "alt_km": 530.3686862327631, "timestamp": "2025-12-26T12:57:39.664791+00:00", "meta": {"OBJECT_NAME": "COSMOS 2251 DEB", "OBJECT_ID": "1993-036BK", "EPOCH": "2025-12-26T02:19:10.254144", "MEAN_MOTION": 15.13620825, "ECCENTRICITY": 0.00237621, "INCLINATION": 74.0799, "RA_OF_ASC_NODE": 138.6139, "ARG_OF_PERICENTER": 120.4924, "MEAN_ANOMALY": 358.2684, "EPHEMERIS_TYPE": 0, "CLASSIFICATION_TYPE": "U", "NORAD_CAT_ID": 33818, "ELEMENT_SET_NO": 999, "REV_AT_EPOCH": 90064, "BSTAR": 0.0025679162, "MEAN_MOTION_DOT": 0.00046718, "MEAN_MOTION_DDOT": 0}, "tle": {"line1": "1 33818U 93036BK  25360.09664646  .00046718  00000+0  25679-2 0  9997", "line2": "2 33818  74.0799 138.6139 0023762 120.4924 358.2684 15.13620825900642"}}, "geometry": {"type": "Point", "coordinates": [141.45281555647855, 12.92693548440287]}}, {"type": "Feature", "properties": {"norad_id": 33819, "name": "COSMOS 2251 DEB", "group": "cosmos-2251-debris", "lat": 74.05366649222982, "lon": -92.14709490093573, "alt_km": 731.9030589729127, "timestamp": "2025-12-26T12:57:39.664801+00:00", "meta": {"OBJECT_NAME": "COSMOS 2251 DEB", "OBJECT_ID": "1993-036BL", "EPOCH": "2025-12-26T06:39:17.545824", "MEAN_MOTION": 14.3226475, "ECCENTRICITY": 0.00895743, "INCLINATION": 74.1772, "RA_OF_ASC_NODE": 185.358, "ARG_OF_PERICENTER": 42.5988, "MEAN_ANOMALY": 130.4806, "EPHEMERIS_TYPE": 0, "CLASSIFICATION_TYPE": "U", "NORAD_CAT_ID": 33819, "ELEMENT_SET_NO": 999, "REV_AT_EPOCH": 87689, "BSTAR": 0.00051612126, "MEAN_MOTION_DOT": 1.431e-05, "MEAN_MOTION_DDOT": 0}, "tle": {"line1": "1 33819U 93036BL  25360.27728641  .00001431  00000+0  51612-3 0  9994", "line2": "2 33819  74.1772 185.3580 0089574  42.5988 130.4806 14.32264750876897"}}, "geometry": {"type": "Point", "coordinates": [-92.14709490093573, 74.05366649222982]}}, {"type": "Feature", "properties": {"norad_id": 33821, "name": "COSMOS 2251 DEB", "group": "cosmos-2251-debris", "lat": 73.21720821441062, "lon": -174.63395131707068, "alt_km": 461.6487315642207, "timestamp": "2025-12-26T12:57:39.664812+00:00", "meta": {"OBJECT_NAME": "COSMOS 2251 DEB", "OBJECT_ID": "1993-036BN", "EPOCH": "2025-12-25T17:42:39.732768", "MEAN_MOTION": 15.26124153, "ECCENTRICITY": 0.00492072, "INCLINATION": 74.0304, "RA_OF_ASC_NODE": 115.3421, "ARG_OF_PERICENTER": 144.3088, "MEAN_ANOMALY": 216.142, "EPHEMERIS_TYPE": 0, "CLASSIFICATION_TYPE": "U", "NORAD_CAT_ID": 33821, "ELEMENT_SET_NO": 999, "REV_AT_EPOCH": 75199, "BSTAR": 0.0012899322, "MEAN_MOTION_DOT": 0.00034606, "MEAN_MOTION_DDOT": 0}, "tle": {"line1": "1 33821U 93036BN  25359.73795987  .00034606  00000+0  12899-2 0  9996", "line2": "2 33821  74.0304 115.3421 0049207 144.3088 216.1420 15.26124153751991"}}, "geometry": {"type": "Point", "coordinates": [-174.63395131707068, 73.21720821441062]}}, {"type": "Feature", "properties": {"norad_id": 33822, "name": "COSMOS 2251 DEB", "group": "cosmos-2251-debris", "lat": 41.66220868928207, "lon": -175.95813595049893, "alt_km": 952.9269169776853, "timestamp": "2025-12-26T12:57:39.664823+00:00", "meta": {"OBJECT_NAME": "COSMOS 2251 DEB", "OBJECT_ID": "1993-036BP", "EPOCH": "2025-12-25T13:16:47.544384", "MEAN_MOTION": 14.13138003, "ECCENTRICITY": 0.0152596, "INCLINATION": 74.0681, "RA_OF_ASC_NODE": 171.0597, "ARG_OF_PERICENTER": 214.3479, "MEAN_ANOMALY": 212.0747, "EPHEMERIS_TYPE": 0, "CLASSIFICATION_TYPE": "U", "NORAD_CAT_ID": 33822, "ELEMENT_SET_NO": 999, "REV_AT_EPOCH": 86235, "BSTAR": 0.0016849, "MEAN_MOTION_DOT": 3.495e-05, "MEAN_MOTION_DDOT": 0}, "tle": {"line1": "1 33822U 93036BP  25359.55332806  .00003495  00000+0  16849-2 0  9995", "line2": "2 33822  74.0681 171.0597 0152596 214.3479 212.0747 14.13138003862355"}}, "geometry": {"type": "Point", "coordinates": [-175.95813595049893, 41.66220868928207]}}, {"type": "Feature", "properties": {"norad_id": 33823, "name": "COSMOS 2251 DEB", "group": "cosmos-2251-debris", "lat": -60.49992389187791, "lon": -23.959469949807595, "alt_km": 751.8740462778505, "timestamp": "2025-12-26T12:57:39.664833+00:00", "meta": {"OBJECT_NAME": "COSMOS 2251 DEB", "OBJECT_ID": "1993-036BQ", "EPOCH": "2025-12-26T02:02:22.107840", "MEAN_MOTION": 13.98985221, "ECCENTRICITY": 0.02094882, "INCLINATION": 73.8101, "RA_OF_ASC_NODE": 125.9415, "ARG_OF_PERICENTER": 248.9793, "MEAN_ANOMALY": 225.1156, "EPHEMERIS_TYPE": 0, "CLASSIFICATION_TYPE": "U", "NORAD_CAT_ID": 33823, "ELEMENT_SET_NO": 999, "REV_AT_EPOCH": 85796, "BSTAR": 0.00088517068, "MEAN_MOTION_DOT": 1.517e-05, "MEAN_MOTION_DDOT": 0}, "tle": {"line1": "1 33823U 93036BQ  25360.08497810  .00001517  00000+0  88517-3 0  9998", "line2": "2 33823  73.8101 125.9415 0209488 248.9793 225.1156 13.98985221857966"}}, "geometry": {"type": "Point", "coordinates": [-23.959469949807595, -60.49992389187791]}}]}